ONEWEB-0228             
1 48780U 21045P   23252.28301538  .00000286  00000+0  72580-3 0  9993
2 48780  87.8948 100.6793 0001783  87.8401 272.2934 13.15550717112419
